TDRS 3                  
1 19548U 88091B   24160.91544934 -.00000306  00000+0  00000+0 0  9993
2 19548  13.1687 345.9848 0034867 342.3925 210.1180  1.00274824117967
FLTSATCOM 8 (USA 46)    
1 20253U 89077A   24161.61976784 -.00000373  00000+0  00000+0 0  9997
2 20253  12.6364 355.6040 0005608  72.1859 179.5866  1.00273729253227
SKYNET 4C               
1 20776U 90079A   24161.18452307  .00000118  00000+0  00000+0 0  9999
2 20776  13.5776 354.8570 0001982  71.9575 291.0233  1.00274743123496
TDRS 5                  
1 21639U 91054B   24161.48536271 -.00000309  00000+0  00000+0 0  9991
2 21639  14.1640 359.1686 0002491 239.6745 132.1932  1.00272712120320
TDRS 6                  
1 22314U 93003B   24161.24550564 -.00000303  00000+0  00000+0 0  9997
2 22314  14.1628   2.4734 0010423 150.9586 147.0170  1.00279545115000
UFO 2 (USA 95)          
1 22787U 93056A   24159.74851706  .00000118  00000+0  00000+0 0  9996
2 22787  11.6543   7.4250 0004386  64.0584 123.3293  1.00275979111134
USA 99 (MILSTAR-1 1)    
1 22988U 94009A   24161.18052984 -.00000208  00000+0  00000+0 0  9991
2 22988  16.4983  35.5403 0001804  29.6527 167.8195  1.00271143 25560
UFO 4 (USA 108)         
1 23467U 95003A   24161.38882503 -.00000029  00000+0  00000+0 0  9990
2 23467   9.7039  15.5034 0004245  87.7737 107.1005  1.00272208107558
AMSC 1                  
1 23553U 95019A   24161.18660528 -.00000102  00000+0  00000+0 0  9994
2 23553  12.6241  21.4161 0005148 327.8560 228.4244  1.00271918106776
TDRS 7                  
1 23613U 95035B   24161.59436038 -.00000210  00000+0  00000+0 0  9991
2 23613  13.6848 353.2865 0028767  69.2491 134.7260  1.00275563105851
USA 115 (MILSTAR-1 2)   
1 23712U 95060A   24161.13938028 -.00000027  00000+0  00000+0 0  9991
2 23712  13.7984   9.0899 0001484  34.8418 144.1994  1.00272210 25485
INMARSAT 3-F1           
1 23839U 96020A   24161.14840885 -.00000271  00000+0  00000+0 0  9993
2 23839   9.0502  52.9650 0006089  49.4854 144.3052  0.99987294102871
INMARSAT 3-F2           
1 24307U 96053A   24161.54077215 -.00000040  00000+0  00000+0 0  9997
2 24307   8.1711  61.0247 0008552  25.5269 182.3321  1.00003874101549
INMARSAT 3-F3           
1 24674U 96070A   24160.78018706  .00000034  00000+0  00000+0 0  9990
2 24674   8.7067  56.2907 0004788  34.4680 153.8744  0.99980051100525
GALAXY 25 (G-25)        
1 24812U 97026A   24161.47896767 -.00000201  00000+0  00000+0 0  9991
2 24812   5.5218  76.1958 0011997 348.2354 179.2281  0.99095577 98910
INTELSAT 5 (IS-5)       
1 24916U 97046A   24161.45909774 -.00000069  00000+0  00000+0 0  9991
2 24916   8.7860  55.5394 0002366  69.1576 105.0327  1.00272351 98225
AMC-3                   
1 24936U 97050A   24161.38118546 -.00000265  00000+0  00000+0 0  9997
2 24936   6.3299  72.2637 0002622 356.5055 254.6765  1.00271512 45039
USA 134                 
1 25019U 97065A   24161.18660528 -.00000070  00000+0  00000+0 0  9990
2 25019  11.9005  26.9078 0002686  14.2044 171.8053  1.00274499 24203
INMARSAT 3-F5           
1 25153U 98006B   24161.32682550 -.00000295  00000+0  00000+0 0  9999
2 25153   8.0292  60.1587 0004668  13.2387 248.4143  1.00269316 96496
ASTRA 2A                
1 25462U 98050A   24160.93655750  .00000064  00000+0  00000+0 0  9992
2 25462   5.2279  77.5624 0003326 352.0055 222.5905  1.00272564 38936
SKYNET 4E               
1 25639U 99009B   24161.28290448 -.00000041  00000+0  00000+0 0  9997
2 25639  11.6293  13.1206 0002399  69.6377 275.9827  1.00273330 43986
ABS-6                   
1 25924U 99053A   24161.57219473 -.00000121  00000+0  00000+0 0  9993
2 25924   0.0178  44.6865 0003740  46.3637 172.3600  1.00269558 90448
UFO 10 (USA 146)        
1 25967U 99063A   24160.99217840 -.00000194  00000+0  00000+0 0  9992
2 25967   9.4587  30.6835 0001678  88.1167 113.3825  1.00269201 89946
GALAXY 11 (G-11)        
1 26038U 99071A   24161.57792236 -.00000058  00000+0  00000+0 0  9992
2 26038   4.8370  79.3554 0000283 267.1017 286.3049  1.00272025 89685
USA 148                 
1 26052U 00001A   24161.40188465  .00000031  00000+0  00000+0 0  9998
2 26052  10.6998  37.7922 0000648 314.9920 230.3975  1.00274571 25560
ASIASTAR                
1 26107U 00016A   24161.60227375 -.00000339  00000+0  00000+0 0  9993
2 26107   7.3899  65.6312 0004169   9.3828 145.2267  1.00273882 88528
USA 149 (DSP 20)        
1 26356U 00024A   24161.25520726  .00000088  00000+0  00000+0 0  9995
2 26356  12.6125  16.8525 0001284  99.4549  68.2569  1.00282244 25515
TDRS 8                  
1 26388U 00034A   24161.43345148  .00000087  00000+0  00000+0 0  9993
2 26388  11.5310  37.3397 0001867 287.0310 282.2550  1.00269180 87786
INTELSAT 9 (IS-9)       
1 26451U 00043A   24160.94307660  .00000021  00000+0  00000+0 0  9994
2 26451   8.7706  55.7380 0002045  29.5040 154.9454  1.00378801 36747
NSS-11                  
1 26554U 00059A   24161.54077215  .00000024  00000+0  00000+0 0  9995
2 26554   0.2157  88.2174 0002783 347.5530 193.2916  1.00272660 33894
USA 153                 
1 26575U 00065A   24161.61883006 -.00000331  00000+0  00000+0 0  9998
2 26575  10.3427  41.0632 0001656   2.0859 212.4474  1.00274866 25535
AMC-6                   
1 26580U 00067A   24161.27980755  .00000103  00000+0  00000+0 0  9993
2 26580   0.0243  39.8715 0002783  61.1205 118.8628  1.00272024 86499
INTELSAT 1R (IS-1R)     
1 26608U 00072A   24161.61646705 -.00000143  00000+0  00000+0 0  9997
2 26608   6.2484  72.7997 0000166  82.4264 122.2617  1.00271224 33925
ANIK F1                 
1 26624U 00076A   24161.45952147 -.00000065  00000+0  00000+0 0  9994
2 26624   3.2855  83.8271 0009178   5.9449 224.7986  1.00271355 35741
USA 157 (MILSTAR-2 2)   
1 26715U 01009A   24161.28774488  .00000005  00000+0  00000+0 0  9996
2 26715  10.7393  23.8955 0002149  36.1957 177.4842  1.00277030 25555
INTELSAT 10 (IS-10)     
1 26766U 01019A   24161.60773059 -.00000366  00000+0  00000+0 0  9993
2 26766   7.3076  66.7250 0002960  20.0509 150.0032  1.00130501 38228
INTELSAT 901 (IS-901)   
1 26824U 01024A   24161.27410506 -.00000203  00000+0  00000+0 0  9992
2 26824   0.0247  93.0648 0000777 325.3224 270.9281  1.00269250 15582
ASTRA 2C                
1 26853U 01025A   24161.21269975  .00000027  00000+0  00000+0 0  9994
2 26853   6.3520  72.1251 0004608 339.1539 179.0783  0.99041153 37648
USA 159 (DSP 21)        
1 26880U 01033A   24161.48797338 -.00000304  00000+0  00000+0 0  9990
2 26880  12.0879  21.3492 0001466 282.2288  81.2187  1.00278586 25576
INTELSAT 902 (IS-902)   
1 26900U 01039A   24161.27307093 -.00000285  00000+0  00000+0 0  9999
2 26900   4.2420  80.7336 0004745  22.1963 203.4214  1.00270206 83297
USA 164 (MILSTAR-2 3)   
1 27168U 02001A   24161.25188244  .00000079  00000+0  00000+0 0  9999
2 27168  10.3053  25.8925 0099694 359.7586 339.2229  1.00274705 25552
INTELSAT 904 (IS-904)   
1 27380U 02007A   24161.49180237 -.00000218  00000+0  00000+0 0  9997
2 27380   5.0624  77.9294 0002767  14.5696 313.3752  1.00271049 44365
DIRECTV 5 (TEMPO 1)     
1 27426U 02023A   24161.37410600 -.00000058  00000+0  00000+0 0  9995
2 27426   2.9825  84.5292 0003358   4.4148 193.8302  1.00271619 80729
INTELSAT 905 (IS-905)   
1 27438U 02027A   24161.27410506 -.00000189  00000+0  00000+0 0  9991
2 27438   4.8873  78.5908 0002327 351.8014 261.8938  1.00270852 43963
GALAXY 3C (G-3C)        
1 27445U 02030A   24161.47892302 -.00000154  00000+0  00000+0 0  9995
2 27445   1.8254  86.9089 0003033  33.2942 215.7037  1.00271948 39094
INTELSAT 906 (IS-906)   
1 27513U 02041A   24160.98778097  .00000011  00000+0  00000+0 0  9993
2 27513   3.9166  81.9861 0003951 352.3634 243.2454  1.00270873 79628
TDRS 10                 
1 27566U 02055A   24161.39702193  .00000081  00000+0  00000+0 0  9993
2 27566   9.5492  45.4636 0006132 346.8192 197.7702  1.00275087 78839
NIMIQ 2                 
1 27632U 02062A   24161.45952147 -.00000072  00000+0  00000+0 0  9999
2 27632   7.7143  64.2999 0005227  15.1110 235.1300  1.00271988 36782
USA 167                 
1 27691U 03008A   24161.31785692  .00000045  00000+0  00000+0 0  9998
2 27691   9.4828  49.5666 0000328 287.5232 265.6844  1.00271927 25557
USA 169 (MILSTAR-2 4)   
1 27711U 03012A   24161.49563236 -.00000203  00000+0  00000+0 0  9990
2 27711  11.2200  35.4325 0099522   2.2050 191.2329  1.00270589 25550
ASIASAT 4               
1 27718U 03014A   24161.61646705 -.00000224  00000+0  00000+0 0  9999
2 27718   2.8090  85.0508 0002725 354.9410 187.9518  1.00271255 37905
HELLAS-SAT 2            
1 27811U 03020A   24161.06636917 -.00000087  00000+0  00000+0 0  9990
2 27811   5.5034  76.5914 0004392   1.3667 193.8400  1.00271929 35443
THURAYA-2               
1 27825U 03026A   24161.22931417  .00000121  00000+0  00000+0 0  9990
2 27825   7.7102  34.2354 0002722  21.2388 329.1754  1.00272404 76948
OPTUS C1                
1 27831U 03028B   24161.61646705 -.00000154  00000+0  00000+0 0  9992
2 27831   5.0286  78.2566 0005677 357.4365 200.3693  1.00273823 45666
GALAXY 23 (G-23)        
1 27854U 03034A   24161.46716126  .00000011  00000+0  00000+0 0  9993
2 27854   1.2865  89.1463 0002771 350.6544 225.8104  1.00271360 76347
USA 170                 
1 27875U 03040A   24156.92479902  .00000130  00000+0  00000+0 0  9998
2 27875   8.9094  54.5280 0007152  44.1529 152.1519  1.00348681 24185
GALAXY 13 (HORIZONS-1)  
1 27954U 03044A   24160.81368647  .00000132  00000+0  00000+0 0  9998
2 27954   0.0481  88.0740 0001041 277.4267  35.0966  1.00274090 39161
YAMAL 202               
1 28089U 03053A   24161.45874965 -.00000083  00000+0  00000+0 0  9990
2 28089   4.4704  79.8304 0004165  12.9946 134.1175  1.00271963 75302
UFO 11 (USA 174)        
1 28117U 03057A   24160.78729326 -.00000108  00000+0  00000+0 0  9999
2 28117   8.0542  36.7747 0003589  51.5378 168.1670  1.00271931 75047
